NORAD_CAT_ID,OBJECT_NAME,OBJECT_TYPE,EPOCH,MEAN_MOTION,ECCENTRICITY,INCLINATION,RA_OF_ASC_NODE,ARG_OF_PERICENTER,MEAN_ANOMALY,BSTAR,MEAN_MOTION_DOT,MEAN_MOTION_DDOT,TLE_LINE0,TLE_LINE1,TLE_LINE2,SEMIMAJOR_AXIS,PERIOD,APOGEE,PERIGEE,DECAYED
51714.0,STARLINK-3528,PAYLOAD,2023-08-07 08:50:45,15.08841341,0.0001202,53.2163,252.8311,87.6138,272.4992,-2.6222e-05,-7.05e-06,0.0,0 STARLINK-3528,1 51714U 22016A   23219.36858253 -.00000705  00000-0 -26222-4 0  9998,2 51714  53.2163 252.8311 0001202  87.6138 272.4992 15.08841341 81784,6917.876,95.437,540.573,538.91,0.0
51714.0,STARLINK-3528,PAYLOAD,2023-08-08 10:16:55,15.08844044,0.0001149,53.2163,248.0754,80.2223,279.8899,9.1366e-05,1.167e-05,0.0,0 STARLINK-3528,1 51714U 22016A   23220.42841666  .00001167  00000-0  91366-4 0  9999,2 51714  53.2163 248.0754 0001149  80.2223 279.8899 15.08844044 81944,6917.868,95.437,540.528,538.938,0.0
51714.0,STARLINK-3528,PAYLOAD,2023-08-09 08:32:19,15.08834214,0.0001143,53.2161,243.9122,79.6659,280.4462,3.1364e-05,2.11e-06,0.0,0 STARLINK-3528,1 51714U 22016A   23221.35578661  .00000211  00000-0  31364-4 0  9995,2 51714  53.2161 243.9122 0001143  79.6659 280.4462 15.08834214 82082,6917.898,95.438,540.554,538.972,0.0
51714.0,STARLINK-3528,PAYLOAD,2023-08-10 09:58:30,15.08839633,0.0001147,53.2159,239.1543,77.8926,282.2195,-9.0694e-06,-4.32e-06,0.0,0 STARLINK-3528,1 51714U 22016A   23222.41562620 -.00000432  00000-0 -90694-5 0  9990,2 51714  53.2159 239.1543 0001147  77.8926 282.2195 15.08839633 82245,6917.882,95.438,540.54,538.953,0.0
51714.0,STARLINK-3528,PAYLOAD,2023-08-11 11:24:40,15.08837388,0.0001131,53.2158,234.3964,81.1859,278.9261,5.9216e-05,6.55e-06,0.0,0 STARLINK-3528,1 51714U 22016A   23223.47546862  .00000655  00000-0  59216-4 0  9996,2 51714  53.2158 234.3964 0001131  81.1859 278.9261 15.08837388 82403,6917.888,95.438,540.536,538.971,0.0
51714.0,STARLINK-3528,PAYLOAD,2023-08-12 17:37:00,15.0884016,0.000114,53.2154,228.7464,84.7831,275.3291,7.0233e-05,8.3e-06,0.0,0 STARLINK-3528,1 51714U 22016A   23224.73402789  .00000830  00000-0  70233-4 0  9992,2 51714  53.2154 228.7464 0001140  84.7831 275.3291 15.08840160 82596,6917.88,95.438,540.534,538.956,0.0
51714.0,STARLINK-3528,PAYLOAD,2023-08-14 06:10:51,15.08846324,0.0001186,53.217,221.9073,78.7681,281.3444,4.3419e-05,4.03e-06,0.0,0 STARLINK-3528,1 51714U 22016A   23226.25754576  .00000403  00000-0  43419-4 0  9997,2 51714  53.2170 221.9073 0001186  78.7681 281.3444 15.08846324 82822,6917.861,95.437,540.547,538.906,0.0
51714.0,STARLINK-3528,PAYLOAD,2023-08-14 17:18:34,15.0884067,0.0001397,53.2184,219.8252,81.3337,278.7813,9.7596e-06,-1.33e-06,0.0,0 STARLINK-3528,1 51714U 22016A   23226.72122991 -.00000133  00000-0  97596-5 0  9996,2 51714  53.2184 219.8252 0001397  81.3337 278.7813 15.08840670 82899,6917.878,95.438,540.71,538.777,0.0
51714.0,STARLINK-3528,PAYLOAD,2023-08-15 23:30:54,15.08838138,0.0001199,53.2162,214.1736,93.6684,266.4446,-1.0739e-05,-4.59e-06,0.0,0 STARLINK-3528,1 51714U 22016A   23227.97979185 -.00000459  00000-0 -10739-4 0  9994,2 51714  53.2162 214.1736 0001199  93.6684 266.4446 15.08838138 83085,6917.886,95.438,540.581,538.922,0.0
51714.0,STARLINK-3528,PAYLOAD,2023-08-17 02:32:27,15.08838595,0.0001276,53.2166,209.119,94.7172,265.3966,1.4444e-05,-5.8e-07,0.0,0 STARLINK-3528,1 51714U 22016A   23229.10587181 -.00000058  00000-0  14444-4 0  9993,2 51714  53.2166 209.1190 0001276  94.7172 265.3966 15.08838595 83258,6917.885,95.438,540.632,538.867,0.0
51714.0,STARLINK-3528,PAYLOAD,2023-08-18 03:58:38,15.0883113,0.0001337,53.2171,204.3657,100.0549,260.0594,-5.8708e-06,-3.81e-06,0.0,0 STARLINK-3528,1 51714U 22016A   23230.16571985 -.00000381  00000-0 -58708-5 0  9998,2 51714  53.2171 204.3657 0001337 100.0549 260.0594 15.08831130 83411,6917.908,95.438,540.697,538.848,0.0
51714.0,STARLINK-3528,PAYLOAD,2023-08-19 03:49:24,15.08844536,0.0001561,53.2167,199.9023,96.5836,263.5334,2.4552e-05,1.03e-06,0.0,0 STARLINK-3528,1 51714U 22016A   23231.15931328  .00000103  00000-0  24552-4 0  9998,2 51714  53.2167 199.9023 0001561  96.5836 263.5334 15.08844536 83569,6917.867,95.437,540.811,538.652,0.0
51714.0,STARLINK-3528,PAYLOAD,2023-08-20 03:40:12,15.08837771,0.000141,53.2167,195.4417,83.8026,276.3127,6.7108e-05,7.8e-06,0.0,0 STARLINK-3528,1 51714U 22016A   23232.15291828  .00000780  00000-0  67108-4 0  9998,2 51714  53.2167 195.4417 0001410  83.8026 276.3127 15.08837771 83712,6917.887,95.438,540.728,538.777,0.0
51714.0,STARLINK-3528,PAYLOAD,2023-08-21 01:55:34,15.08885363,0.0001827,53.2174,191.2798,74.8266,285.2928,-0.00053138,-8.746e-05,0.0,0 STARLINK-3528,1 51714U 22016A   23233.08026395 -.00008746  00000-0 -53138-3 0  9995,2 51714  53.2174 191.2798 0001827  74.8266 285.2928 15.08885363 83857,6917.742,95.435,540.871,538.343,0.0
51714.0,STARLINK-3528,PAYLOAD,2023-08-21 09:52:31,15.08848138,0.0001348,53.2162,189.791,100.7901,259.3243,3.1892e-05,2.2e-06,0.0,0 STARLINK-3528,1 51714U 22016A   23233.41147051  .00000220  00000-0  31892-4 0  9996,2 51714  53.2162 189.7910 0001348 100.7901 259.3243 15.08848138 83902,6917.856,95.437,540.653,538.788,0.0
51714.0,STARLINK-3528,PAYLOAD,2023-08-22 03:21:46,15.08838954,0.000139,53.2177,186.5208,101.079,259.0358,-2.9326e-05,-7.55e-06,0.0,0 STARLINK-3528,1 51714U 22016A   23234.14012067 -.00000755  00000-0 -29326-4 0  9999,2 51714  53.2177 186.5208 0001390 101.0790 259.0358 15.08838954 84012,6917.884,95.438,540.71,538.787,0.0
51714.0,STARLINK-3528,PAYLOAD,2023-08-23 06:23:19,15.08844175,0.0001591,53.2175,181.4645,108.5135,251.603,0.00010911,1.449e-05,0.0,0 STARLINK-3528,1 51714U 22016A   23235.26619233  .00001449  00000-0  10911-3 0  9999,2 51714  53.2175 181.4645 0001591 108.5135 251.6030 15.08844175 84182,6917.868,95.437,540.833,538.632,0.0
51714.0,STARLINK-3528,PAYLOAD,2023-08-24 06:14:06,15.08838071,0.0001373,53.217,177.0054,94.7225,265.3924,6.8741e-05,8.06e-06,0.0,0 STARLINK-3528,1 51714U 22016A   23236.25980038  .00000806  00000-0  68741-4 0  9994,2 51714  53.2170 177.0054 0001373  94.7225 265.3924 15.08838071 83266,6917.886,95.438,540.701,538.801,0.0
51714.0,STARLINK-3528,PAYLOAD,2023-08-25 02:54:07,15.0883964,0.0001525,53.2182,173.1384,102.758,257.3582,-2.2301e-05,-6.43e-06,0.0,0 STARLINK-3528,1 51714U 22016A   23237.12092449 -.00000643  00000-0 -22301-4 0  9994,2 51714  53.2182 173.1384 0001525 102.7580 257.3582 15.08839640 84462,6917.881,95.438,540.801,538.692,0.0
51714.0,STARLINK-3528,PAYLOAD,2023-08-26 05:55:41,15.08810783,0.0001496,53.2183,168.0834,104.461,255.6549,0.0004697,7.189e-05,0.0,0 STARLINK-3528,1 51714U 22016A   23238.24701120  .00007189  00000-0  46970-3 0  9998,2 51714  53.2183 168.0834 0001496 104.4610 255.6549 15.08810783 84636,6917.97,95.439,540.87,538.8,0.0
51714.0,STARLINK-3528,PAYLOAD,2023-08-27 01:00:19,15.0883879,0.0001393,53.2174,164.5115,90.1073,270.0079,2.6487e-05,1.34e-06,0.0,0 STARLINK-3528,1 51714U 22016A   23239.04188857  .00000134  00000-0  26487-4 0  9998,2 51714  53.2174 164.5115 0001393  90.1073 270.0079 15.08838790 84759,6917.884,95.438,540.713,538.785,0.0
51714.0,STARLINK-3528,PAYLOAD,2023-08-27 04:11:05,15.08843157,0.0001452,53.2181,163.9182,95.8602,264.2556,7.2661e-05,8.69e-06,0.0,0 STARLINK-3528,1 51714U 22016A   23239.17436441  .00000869  00000-0  72661-4 0  9997,2 51714  53.2181 163.9182 0001452  95.8602 264.2556 15.08843157 83702,6917.871,95.437,540.74,538.731,0.0
51714.0,STARLINK-3528,PAYLOAD,2023-08-28 00:51:06,15.08840288,0.0001456,53.2175,160.0535,87.4269,272.6889,3.9957e-05,3.48e-06,0.0,0 STARLINK-3528,1 51714U 22016A   23240.03548794  .00000348  00000-0  39957-4 0  9992,2 51714  53.2175 160.0535 0001456  87.4269 272.6889 15.08840288 84902,6917.88,95.438,540.752,538.737,0.0
51714.0,STARLINK-3528,PAYLOAD,2023-08-28 04:01:52,15.08846983,0.000146,53.218,159.4582,86.0533,274.0626,5.9323e-05,6.56e-06,0.0,0 STARLINK-3528,1 51714U 22016A   23240.16796308  .00000656  00000-0  59323-4 0  9993,2 51714  53.2180 159.4582 0001460  86.0533 274.0626 15.08846983 84921,6917.859,95.437,540.734,538.714,0.0
51714.0,STARLINK-3528,PAYLOAD,2023-08-29 00:41:53,15.08839612,0.0001379,53.2171,155.5948,96.0586,264.0563,-4.0353e-05,-9.3e-06,0.0,0 STARLINK-3528,1 51714U 22016A   23241.02909064 -.00000930  00000-0 -40353-4 0  9994,2 51714  53.2171 155.5948 0001379  96.0586 264.0563 15.08839612 85057,6917.882,95.438,540.701,538.793,0.0
51714.0,STARLINK-3528,PAYLOAD,2023-08-29 11:49:35,15.08838577,0.0001335,53.2167,153.5131,94.1529,265.9616,-2.2599e-05,-6.48e-06,0.0,0 STARLINK-3528,1 51714U 22016A   23241.49277034 -.00000648  00000-0 -22599-4 0  9998,2 51714  53.2167 153.5131 0001335  94.1529 265.9616 15.08838577 84059,6917.885,95.438,540.673,538.826,0.0
51714.0,STARLINK-3528,PAYLOAD,2023-08-30 03:43:26,15.0884067,0.0001371,53.217,150.54,93.6225,266.4924,-3.3497e-05,-8.21e-06,0.0,0 STARLINK-3528,1 51714U 22016A   23242.15517127 -.00000821  00000-0 -33497-4 0  9994,2 51714  53.2170 150.5400 0001371  93.6225 266.4924 15.08840670 85221,6917.878,95.438,540.692,538.795,0.0
51714.0,STARLINK-3528,PAYLOAD,2023-08-31 03:34:13,15.08846523,0.0001465,53.2172,146.0796,88.5532,271.5628,4.617e-05,4.47e-06,0.0,0 STARLINK-3528,1 51714U 22016A   23243.14876472  .00000447  00000-0  46170-4 0  9999,2 51714  53.2172 146.0796 0001465  88.5532 271.5628 15.08846523 85376,6917.86,95.437,540.739,538.712,0.0
51714.0,STARLINK-3528,PAYLOAD,2023-09-01 01:49:37,15.08838859,0.0001565,53.217,141.9168,85.1447,274.9723,1.189e-05,-9.9e-07,0.0,0 STARLINK-3528,1 51714U 22016A   23244.07613148 -.00000099  00000-0  11890-4 0  9996,2 51714  53.2170 141.9168 0001565  85.1447 274.9723 15.08838859 85512,6917.884,95.438,540.832,538.666,0.0
51714.0,STARLINK-3528,PAYLOAD,2023-09-01 09:46:33,15.08839307,0.0001567,53.2171,140.4301,84.8921,275.225,1.1172e-05,-1.1e-06,0.0,0 STARLINK-3528,1 51714U 22016A   23244.40733142 -.00000110  00000-0  11172-4 0  9997,2 51714  53.2171 140.4301 0001567  84.8921 275.2250 15.08839307 84495,6917.883,95.438,540.832,538.663,0.0
